*******************************************************************************
Ephemeris / WWW_USER Mon Mar 24 08:06:39 2025 Pasadena, USA      / Horizons    
*******************************************************************************
Target body name: (2018 VX1)                      {source: JPL#7}
Center body name: Earth (399)                     {source: DE441}
Center-site name: Mauna Kea
*******************************************************************************
Start time      : A.D. 2019-Jan-16 04:13:00.0000 UT      
Stop  time      : A.D. 2019-Jan-16 16:49:00.0000 UT      
Step-size       : 1 minutes
*******************************************************************************
Target pole/equ : undefined
Target radii    : undefined                                                    
Center geodetic : 204.5278, 19.8260847, 4.21024   {E-lon(deg),Lat(deg),Alt(km)}
Center cylindric: 204.5278, 6006.35451, 2151.0229 {E-lon(deg),Dxy(km),Dz(km)}
Center pole/equ : ITRF93                          {East-longitude positive}
Center radii    : 6378.137, 6378.137, 6356.752 km {Equator_a, b, pole_c}       
Target primary  : Sun
Vis. interferer : MOON (R_eq= 1737.400) km        {source: DE441}
Rel. light bend : Sun                             {source: DE441}
Rel. lght bnd GM: 1.3271E+11 km^3/s^2                                          
Small-body perts: Yes                             {source: SB441-N16}
Atmos refraction: NO (AIRLESS)
RA format       : HMS
Time format     : CAL 
Calendar mode   : Mixed Julian/Gregorian
RTS-only print  : NO       
EOP file        : eop.250321.p250617                                           
EOP coverage    : DATA-BASED 1962-JAN-20 TO 2025-MAR-21. PREDICTS-> 2025-JUN-16
Units conversion: 1 au= 149597870.700 km, c= 299792.458 km/s, 1 day= 86400.0 s 
Table cut-offs 1: Elevation (-90.0deg=NO ),Airmass (>38.000=NO), Daylight (YES)
Table cut-offs 2: Solar elongation (  0.0,180.0=NO ),Local Hour Angle( 0.0=NO )
Table cut-offs 3: RA/DEC angular rate (     0.0=NO )                           
*******************************************************************************
Initial IAU76/J2000 heliocentric ecliptic osculating elements (au, days, deg.):
  EPOCH=  2458429.5 ! 2018-Nov-07.00 (TDB)         Residual RMS= .34243        
   EC= .3094465550301519   QR= .9449639043218054   TP= 2458464.0659233886      
   OM= 45.67874041641947   W=  38.97310343924259   IN= 3.356915226222919       
  Equivalent ICRF heliocentric cartesian coordinates (au, au/d):
   X= 7.224620352366717E-01  Y= 6.383229877646874E-01  Z= 2.747435985069854E-01
  VX=-1.546092850205216E-02 VY= 1.016746642579675E-02 VZ= 5.632057443641291E-03
Asteroid physical parameters (km, seconds, rotational period in hours):        
   GM= n.a.                RAD= n.a.               ROTPER= n.a.                
   H= 27.5                 G= .150                 B-V= n.a.                   
                           ALBEDO= n.a.            STYP= n.a.                  
*******************************************************************************
 Date__(UT)__HR:MN     R.A._________(ICRF)_________DEC
******************************************************
$$SOE
 2019-Jan-16 10:22  r  13 56 20.714316 +02 49 34.26845
 2019-Jan-16 10:23  m  13 56 20.741927 +02 49 34.00081
 2019-Jan-16 10:24  m  13 56 20.769485 +02 49 33.73318
 2019-Jan-16 10:25  m  13 56 20.796990 +02 49 33.46555
 2019-Jan-16 10:26  m  13 56 20.824442 +02 49 33.19794
 2019-Jan-16 10:27  m  13 56 20.851841 +02 49 32.93033
 2019-Jan-16 10:28  m  13 56 20.879188 +02 49 32.66273
 2019-Jan-16 10:29  m  13 56 20.906481 +02 49 32.39514
 2019-Jan-16 10:30  m  13 56 20.933722 +02 49 32.12756
 2019-Jan-16 10:31  m  13 56 20.960909 +02 49 31.85998
 2019-Jan-16 10:32  m  13 56 20.988044 +02 49 31.59241
 2019-Jan-16 10:33  m  13 56 21.015126 +02 49 31.32485
 2019-Jan-16 10:34  m  13 56 21.042154 +02 49 31.05730
 2019-Jan-16 10:35  m  13 56 21.069130 +02 49 30.78975
 2019-Jan-16 10:36  m  13 56 21.096053 +02 49 30.52221
 2019-Jan-16 10:37  m  13 56 21.122923 +02 49 30.25468
 2019-Jan-16 10:38  m  13 56 21.149740 +02 49 29.98715
 2019-Jan-16 10:39  m  13 56 21.176504 +02 49 29.71963
 2019-Jan-16 10:40  m  13 56 21.203216 +02 49 29.45212
 2019-Jan-16 10:41  m  13 56 21.229874 +02 49 29.18461
 2019-Jan-16 10:42  m  13 56 21.256479 +02 49 28.91710
 2019-Jan-16 10:43  m  13 56 21.283032 +02 49 28.64961
 2019-Jan-16 10:44  m  13 56 21.309531 +02 49 28.38211
 2019-Jan-16 10:45  m  13 56 21.335978 +02 49 28.11463
 2019-Jan-16 10:46  m  13 56 21.362371 +02 49 27.84715
 2019-Jan-16 10:47  m  13 56 21.388712 +02 49 27.57967
 2019-Jan-16 10:48  m  13 56 21.415000 +02 49 27.31220
 2019-Jan-16 10:49  m  13 56 21.441235 +02 49 27.04473
 2019-Jan-16 10:50  m  13 56 21.467417 +02 49 26.77727
 2019-Jan-16 10:51  m  13 56 21.493547 +02 49 26.50981
 2019-Jan-16 10:52  m  13 56 21.519623 +02 49 26.24236
 2019-Jan-16 10:53  m  13 56 21.545647 +02 49 25.97491
 2019-Jan-16 10:54  m  13 56 21.571618 +02 49 25.70746
 2019-Jan-16 10:55  m  13 56 21.597536 +02 49 25.44002
 2019-Jan-16 10:56  m  13 56 21.623402 +02 49 25.17258
 2019-Jan-16 10:57  m  13 56 21.649214 +02 49 24.90515
 2019-Jan-16 10:58  m  13 56 21.674974 +02 49 24.63771
 2019-Jan-16 10:59  m  13 56 21.700681 +02 49 24.37028
 2019-Jan-16 11:00  m  13 56 21.726336 +02 49 24.10286
 2019-Jan-16 11:01  m  13 56 21.751938 +02 49 23.83544
 2019-Jan-16 11:02  m  13 56 21.777487 +02 49 23.56801
 2019-Jan-16 11:03  m  13 56 21.802984 +02 49 23.30060
 2019-Jan-16 11:04  m  13 56 21.828428 +02 49 23.03318
 2019-Jan-16 11:05  m  13 56 21.853819 +02 49 22.76577
 2019-Jan-16 11:06  m  13 56 21.879158 +02 49 22.49835
 2019-Jan-16 11:07  m  13 56 21.904445 +02 49 22.23094
 2019-Jan-16 11:08  m  13 56 21.929679 +02 49 21.96353
 2019-Jan-16 11:09  m  13 56 21.954861 +02 49 21.69613
 2019-Jan-16 11:10  m  13 56 21.979990 +02 49 21.42872
 2019-Jan-16 11:11  m  13 56 22.005067 +02 49 21.16132
 2019-Jan-16 11:12  m  13 56 22.030091 +02 49 20.89391
 2019-Jan-16 11:13  m  13 56 22.055063 +02 49 20.62651
 2019-Jan-16 11:14  m  13 56 22.079983 +02 49 20.35911
 2019-Jan-16 11:15  m  13 56 22.104851 +02 49 20.09170
 2019-Jan-16 11:16  m  13 56 22.129667 +02 49 19.82430
 2019-Jan-16 11:17  m  13 56 22.154430 +02 49 19.55690
 2019-Jan-16 11:18  m  13 56 22.179141 +02 49 19.28950
 2019-Jan-16 11:19  m  13 56 22.203801 +02 49 19.02210
 2019-Jan-16 11:20  m  13 56 22.228408 +02 49 18.75469
 2019-Jan-16 11:21  m  13 56 22.252963 +02 49 18.48729
 2019-Jan-16 11:22  m  13 56 22.277466 +02 49 18.21989
 2019-Jan-16 11:23  m  13 56 22.301918 +02 49 17.95248
 2019-Jan-16 11:24  m  13 56 22.326317 +02 49 17.68508
 2019-Jan-16 11:25  m  13 56 22.350665 +02 49 17.41767
 2019-Jan-16 11:26  m  13 56 22.374961 +02 49 17.15026
 2019-Jan-16 11:27  m  13 56 22.399205 +02 49 16.88286
 2019-Jan-16 11:28  m  13 56 22.423398 +02 49 16.61545
 2019-Jan-16 11:29  m  13 56 22.447539 +02 49 16.34803
 2019-Jan-16 11:30  m  13 56 22.471629 +02 49 16.08062
 2019-Jan-16 11:31  m  13 56 22.495667 +02 49 15.81320
 2019-Jan-16 11:32  m  13 56 22.519653 +02 49 15.54578
 2019-Jan-16 11:33  m  13 56 22.543588 +02 49 15.27836
 2019-Jan-16 11:34  m  13 56 22.567472 +02 49 15.01094
 2019-Jan-16 11:35  m  13 56 22.591305 +02 49 14.74351
 2019-Jan-16 11:36  m  13 56 22.615086 +02 49 14.47608
 2019-Jan-16 11:37  m  13 56 22.638816 +02 49 14.20865
 2019-Jan-16 11:38  m  13 56 22.662495 +02 49 13.94122
 2019-Jan-16 11:39  m  13 56 22.686124 +02 49 13.67378
 2019-Jan-16 11:40  m  13 56 22.709701 +02 49 13.40634
 2019-Jan-16 11:41  m  13 56 22.733227 +02 49 13.13889
 2019-Jan-16 11:42  m  13 56 22.756702 +02 49 12.87144
 2019-Jan-16 11:43  m  13 56 22.780127 +02 49 12.60399
 2019-Jan-16 11:44  m  13 56 22.803500 +02 49 12.33653
 2019-Jan-16 11:45  m  13 56 22.826823 +02 49 12.06907
 2019-Jan-16 11:46  m  13 56 22.850096 +02 49 11.80160
 2019-Jan-16 11:47  m  13 56 22.873318 +02 49 11.53413
 2019-Jan-16 11:48  m  13 56 22.896490 +02 49 11.26666
 2019-Jan-16 11:49  m  13 56 22.919611 +02 49 10.99918
 2019-Jan-16 11:50  m  13 56 22.942682 +02 49 10.73169
 2019-Jan-16 11:51  m  13 56 22.965702 +02 49 10.46420
 2019-Jan-16 11:52  m  13 56 22.988673 +02 49 10.19670
 2019-Jan-16 11:53  m  13 56 23.011593 +02 49 09.92920
 2019-Jan-16 11:54  m  13 56 23.034464 +02 49 09.66170
 2019-Jan-16 11:55  m  13 56 23.057284 +02 49 09.39418
 2019-Jan-16 11:56  m  13 56 23.080054 +02 49 09.12666
 2019-Jan-16 11:57  m  13 56 23.102775 +02 49 08.85914
 2019-Jan-16 11:58  m  13 56 23.125446 +02 49 08.59161
 2019-Jan-16 11:59  m  13 56 23.148068 +02 49 08.32407
 2019-Jan-16 12:00  m  13 56 23.170640 +02 49 08.05653
 2019-Jan-16 12:01  m  13 56 23.193162 +02 49 07.78897
 2019-Jan-16 12:02  m  13 56 23.215635 +02 49 07.52142
 2019-Jan-16 12:03  m  13 56 23.238059 +02 49 07.25385
 2019-Jan-16 12:04  m  13 56 23.260433 +02 49 06.98628
 2019-Jan-16 12:05  m  13 56 23.282758 +02 49 06.71870
 2019-Jan-16 12:06  m  13 56 23.305035 +02 49 06.45111
 2019-Jan-16 12:07  m  13 56 23.327262 +02 49 06.18352
 2019-Jan-16 12:08  m  13 56 23.349441 +02 49 05.91592
 2019-Jan-16 12:09  m  13 56 23.371570 +02 49 05.64831
 2019-Jan-16 12:10  m  13 56 23.393651 +02 49 05.38069
 2019-Jan-16 12:11  m  13 56 23.415684 +02 49 05.11306
 2019-Jan-16 12:12  m  13 56 23.437667 +02 49 04.84543
 2019-Jan-16 12:13  m  13 56 23.459603 +02 49 04.57778
 2019-Jan-16 12:14  m  13 56 23.481490 +02 49 04.31013
 2019-Jan-16 12:15  m  13 56 23.503329 +02 49 04.04247
 2019-Jan-16 12:16  m  13 56 23.525120 +02 49 03.77480
 2019-Jan-16 12:17  m  13 56 23.546862 +02 49 03.50712
 2019-Jan-16 12:18  m  13 56 23.568557 +02 49 03.23944
 2019-Jan-16 12:19  m  13 56 23.590204 +02 49 02.97174
 2019-Jan-16 12:20  m  13 56 23.611803 +02 49 02.70403
 2019-Jan-16 12:21  m  13 56 23.633355 +02 49 02.43631
 2019-Jan-16 12:22  m  13 56 23.654858 +02 49 02.16859
 2019-Jan-16 12:23  m  13 56 23.676315 +02 49 01.90085
 2019-Jan-16 12:24  m  13 56 23.697724 +02 49 01.63311
